[{"OBJECT_NAME":"SALSAT","OBJECT_ID":"2020-068K","EPOCH":"2026-03-09T22:26:21.804576","MEAN_MOTION":15.28191989,"ECCENTRICITY":0.00082652,"INCLINATION":97.8859,"RA_OF_ASC_NODE":66.0795,"ARG_OF_PERICENTER":295.8051,"MEAN_ANOMALY":64.2334,"EPHEMERIS_TYPE":0,"CLASSIFICATION_TYPE":"U","NORAD_CAT_ID":46495,"ELEMENT_SET_NO":999,"REV_AT_EPOCH":30019,"BSTAR":0.00040842582,"MEAN_MOTION_DOT":0.00011156,"MEAN_MOTION_DDOT":0},{"OBJECT_NAME":"STARLINK-31343","OBJECT_ID":"2024-041V","EPOCH":"2026-03-09T09:31:01.235712","MEAN_MOTION":15.27562442,"ECCENTRICITY":0.00015752,"INCLINATION":43.0026,"RA_OF_ASC_NODE":312.6134,"ARG_OF_PERICENTER":269.7459,"MEAN_ANOMALY":90.3212,"EPHEMERIS_TYPE":0,"CLASSIFICATION_TYPE":"U","NORAD_CAT_ID":59093,"ELEMENT_SET_NO":999,"REV_AT_EPOCH":11427,"BSTAR":0.00033569117,"MEAN_MOTION_DOT":8.982e-5,"MEAN_MOTION_DDOT":0}]
